{"type": "FeatureCollection", "features": [ {"type": "Feature", "properties": {"norad_id": 30675, "name": "FENGYUN 1C DEB", "group": "fengyun-1c-debris", "lat": -16.086394225042472, "lon": 66.45907990352215, "alt_km": 843.4449296921148, "timestamp": "2025-12-10T18:57:00.343407+00:00", "meta": {"OBJECT_NAME": "FENGYUN 1C DEB", "OBJECT_ID": "1999-025AQH", "EPOCH": "2025-12-10T04:01:35.850720", "MEAN_MOTION": 14.27368624, "ECCENTRICITY": 0.00541122, "INCLINATION": 98.7533, "RA_OF_ASC_NODE": 63.2901, "ARG_OF_PERICENTER": 176.3272, "MEAN_ANOMALY": 214.0001, "EPHEMERIS_TYPE": 0, "CLASSIFICATION_TYPE": "U", "NORAD_CAT_ID": 30675, "ELEMENT_SET_NO": 999, "REV_AT_EPOCH": 96855, "BSTAR": 0.0025121478, "MEAN_MOTION_DOT": 6.213e-05, "MEAN_MOTION_DDOT": 0}, "tle": {"line1": "1 30675U 99025AQH 25344.16777605  .00006213  00000+0  25121-2 0  9997", "line2": "2 30675  98.7533  63.2901 0054112 176.3272 214.0001 14.27368624968554"}}, "geometry": {"type": "Point", "coordinates": [66.45907990352215, -16.086394225042472]}}, {"type": "Feature", "properties": {"norad_id": 30676, "name": "FENGYUN 1C DEB", "group": "fengyun-1c-debris", "lat": -51.391980863632696, "lon": -178.5657629810918, "alt_km": 1071.1087364168143, "timestamp": "2025-12-10T18:57:00.343417+00:00", "meta": {"OBJECT_NAME": "FENGYUN 1C DEB", "OBJECT_ID": "1999-025AQJ", "EPOCH": "2025-12-09T18:43:48.186912", "MEAN_MOTION": 13.73899058, "ECCENTRICITY": 0.04723597, "INCLINATION": 98.2657, "RA_OF_ASC_NODE": 170.0688, "ARG_OF_PERICENTER": 56.3451, "MEAN_ANOMALY": 308.1836, "EPHEMERIS_TYPE": 0, "CLASSIFICATION_TYPE": "U", "NORAD_CAT_ID": 30676, "ELEMENT_SET_NO": 999, "REV_AT_EPOCH": 93883, "BSTAR": 0.0011154341, "MEAN_MOTION_DOT": 2.321e-05, "MEAN_MOTION_DDOT": 0}, "tle": {"line1": "1 30676U 99025AQJ 25343.78041883  .00002321  00000+0  11154-2 0  9994", "line2": "2 30676  98.2657 170.0688 0472359  56.3451 308.1836 13.73899058938838"}}, "geometry": {"type": "Point", "coordinates": [-178.5657629810918, -51.391980863632696]}}, {"type": "Feature", "properties": {"norad_id": 30677, "name": "FENGYUN 1C DEB", "group": "fengyun-1c-debris", "lat": -80.98283672228357, "lon": 96.130404576032, "alt_km": 750.9385944950855, "timestamp": "2025-12-10T18:57:00.343427+00:00", "meta": {"OBJECT_NAME": "FENGYUN 1C DEB", "OBJECT_ID": "1999-025AQK", "EPOCH": "2025-12-09T01:55:20.074080", "MEAN_MOTION": 14.38104249, "ECCENTRICITY": 0.00660169, "INCLINATION": 98.2539, "RA_OF_ASC_NODE": 28.3232, "ARG_OF_PERICENTER": 215.044, "MEAN_ANOMALY": 212.6594, "EPHEMERIS_TYPE": 0, "CLASSIFICATION_TYPE": "U", "NORAD_CAT_ID": 30677, "ELEMENT_SET_NO": 999, "REV_AT_EPOCH": 97927, "BSTAR": 0.0014869824, "MEAN_MOTION_DOT": 4.582e-05, "MEAN_MOTION_DDOT": 0}, "tle": {"line1": "1 30677U 99025AQK 25343.08009345  .00004582  00000+0  14870-2 0  9994", "line2": "2 30677  98.2539  28.3232 0066016 215.0440 212.6594 14.38104249979275"}}, "geometry": {"type": "Point", "coordinates": [96.130404576032, -80.98283672228357]}}, {"type": "Feature", "properties": {"norad_id": 30678, "name": "FENGYUN 1C DEB", "group": "fengyun-1c-debris", "lat": -38.200470891085146, "lon": 118.25722926395702, "alt_km": 768.5926097192287, "timestamp": "2025-12-10T18:57:00.343437+00:00", "meta": {"OBJECT_NAME": "FENGYUN 1C DEB", "OBJECT_ID": "1999-025AQL", "EPOCH": "2025-12-10T10:04:43.597920", "MEAN_MOTION": 14.24112921, "ECCENTRICITY": 0.0071883, "INCLINATION": 99.0801, "RA_OF_ASC_NODE": 305.1052, "ARG_OF_PERICENTER": 237.6292, "MEAN_ANOMALY": 247.2907, "EPHEMERIS_TYPE": 0, "CLASSIFICATION_TYPE": "U", "NORAD_CAT_ID": 30678, "ELEMENT_SET_NO": 999, "REV_AT_EPOCH": 95842, "BSTAR": 0.0049893, "MEAN_MOTION_DOT": 0.00011762, "MEAN_MOTION_DDOT": 0}, "tle": {"line1": "1 30678U 99025AQL 25344.41994905  .00011762  00000+0  49893-2 0  9999", "line2": "2 30678  99.0801 305.1052 0071883 237.6292 247.2907 14.24112921958423"}}, "geometry": {"type": "Point", "coordinates": [118.25722926395702, -38.200470891085146]}}, {"type": "Feature", "properties": {"norad_id": 30679, "name": "FENGYUN 1C DEB", "group": "fengyun-1c-debris", "lat": -66.58709089175527, "lon": 59.00194840578642, "alt_km": 1083.3933697987477, "timestamp": "2025-12-10T18:57:00.343448+00:00", "meta": {"OBJECT_NAME": "FENGYUN 1C DEB", "OBJECT_ID": "1999-025AQM", "EPOCH": "2025-12-10T02:11:54.714336", "MEAN_MOTION": 13.79708913, "ECCENTRICITY": 0.01717936, "INCLINATION": 99.3818, "RA_OF_ASC_NODE": 35.8646, "ARG_OF_PERICENTER": 85.7877, "MEAN_ANOMALY": 341.727, "EPHEMERIS_TYPE": 0, "CLASSIFICATION_TYPE": "U", "NORAD_CAT_ID": 30679, "ELEMENT_SET_NO": 999, "REV_AT_EPOCH": 94483, "BSTAR": 0.00082446772, "MEAN_MOTION_DOT": 9.09e-06, "MEAN_MOTION_DDOT": 0}, "tle": {"line1": "1 30679U 99025AQM 25344.09160549  .00000909  00000+0  82447-3 0  9997", "line2": "2 30679  99.3818  35.8646 0171793  85.7877 341.7270 13.79708913944837"}}, "geometry": {"type": "Point", "coordinates": [59.00194840578642, -66.58709089175527]}}, {"type": "Feature", "properties": {"norad_id": 30680, "name": "FENGYUN 1C DEB", "group": "fengyun-1c-debris", "lat": -36.689433489880216, "lon": 34.71165127499422, "alt_km": 1273.7802544744727, "timestamp": "2025-12-10T18:57:00.343458+00:00", "meta": {"OBJECT_NAME": "FENGYUN 1C DEB", "OBJECT_ID": "1999-025AQN", "EPOCH": "2025-12-10T01:26:17.173536", "MEAN_MOTION": 13.56070928, "ECCENTRICITY": 0.03407435, "INCLINATION": 99.6289, "RA_OF_ASC_NODE": 26.7311, "ARG_OF_PERICENTER": 174.377, "MEAN_ANOMALY": 186.135, "EPHEMERIS_TYPE": 0, "CLASSIFICATION_TYPE": "U", "NORAD_CAT_ID": 30680, "ELEMENT_SET_NO": 999, "REV_AT_EPOCH": 92217, "BSTAR": 0.0058405273, "MEAN_MOTION_DOT": 5.909e-05, "MEAN_MOTION_DDOT": 0}, "tle": {"line1": "1 30680U 99025AQN 25344.05992099  .00005909  00000+0  58405-2 0  9999", "line2": "2 30680  99.6289  26.7311 0340743 174.3770 186.1350 13.56070928922178"}}, "geometry": {"type": "Point", "coordinates": [34.71165127499422, -36.689433489880216]}}, {"type": "Feature", "properties": {"norad_id": 30683, "name": "FENGYUN 1C DEB", "group": "fengyun-1c-debris", "lat": -37.76412781385835, "lon": 3.616920296426135, "alt_km": 900.565766555942, "timestamp": "2025-12-10T18:57:00.343468+00:00", "meta": {"OBJECT_NAME": "FENGYUN 1C DEB", "OBJECT_ID": "1999-025AQR", "EPOCH": "2025-12-10T00:24:00.125568", "MEAN_MOTION": 14.00370106, "ECCENTRICITY": 0.01383149, "INCLINATION": 99.429, "RA_OF_ASC_NODE": 355.4238, "ARG_OF_PERICENTER": 232.0375, "MEAN_ANOMALY": 153.6595, "EPHEMERIS_TYPE": 0, "CLASSIFICATION_TYPE": "U", "NORAD_CAT_ID": 30683, "ELEMENT_SET_NO": 999, "REV_AT_EPOCH": 95513, "BSTAR": 0.0017226899, "MEAN_MOTION_DOT": 2.724e-05, "MEAN_MOTION_DDOT": 0}, "tle": {"line1": "1 30683U 99025AQR 25344.01666812  .00002724  00000+0  17227-2 0  9998", "line2": "2 30683  99.4290 355.4238 0138314 232.0375 153.6595 14.00370106955136"}}, "geometry": {"type": "Point", "coordinates": [3.616920296426135, -37.76412781385835]}}, {"type": "Feature", "properties": {"norad_id": 30684, "name": "FENGYUN 1C DEB", "group": "fengyun-1c-debris", "lat": 12.107216135508223, "lon": 24.141481449389804, "alt_km": 1032.6595326214447, "timestamp": "2025-12-10T18:57:00.343478+00:00", "meta": {"OBJECT_NAME": "FENGYUN 1C DEB", "OBJECT_ID": "1999-025AQS", "EPOCH": "2025-12-10T01:19:18.186240", "MEAN_MOTION": 13.66796511, "ECCENTRICITY": 0.02345445, "INCLINATION": 99.5314, "RA_OF_ASC_NODE": 25.483, "ARG_OF_PERICENTER": 276.1662, "MEAN_ANOMALY": 81.281, "EPHEMERIS_TYPE": 0, "CLASSIFICATION_TYPE": "U", "NORAD_CAT_ID": 30684, "ELEMENT_SET_NO": 999, "REV_AT_EPOCH": 93592, "BSTAR": 0.0012804643, "MEAN_MOTION_DOT": 1.244e-05, "MEAN_MOTION_DDOT": 0}, "tle": {"line1": "1 30684U 99025AQS 25344.05507160  .00001244  00000+0  12805-2 0  9996", "line2": "2 30684  99.5314  25.4830 0234544 276.1662  81.2810 13.66796511935921"}}, "geometry": {"type": "Point", "coordinates": [24.141481449389804, 12.107216135508223]}}, {"type": "Feature", "properties": {"norad_id": 30686, "name": "FENGYUN 1C DEB", "group": "fengyun-1c-debris", "lat": -76.03522105333867, "lon": -141.7638852964273, "alt_km": 746.9378550049987, "timestamp": "2025-12-10T18:57:00.343489+00:00", "meta": {"OBJECT_NAME": "FENGYUN 1C DEB", "OBJECT_ID": "1999-025AQU", "EPOCH": "2025-12-10T11:26:35.304000", "MEAN_MOTION": 14.73838692, "ECCENTRICITY": 0.0144172, "INCLINATION": 99.033, "RA_OF_ASC_NODE": 178.1173, "ARG_OF_PERICENTER": 127.6453, "MEAN_ANOMALY": 293.7029, "EPHEMERIS_TYPE": 0, "CLASSIFICATION_TYPE": "U", "NORAD_CAT_ID": 30686, "ELEMENT_SET_NO": 999, "REV_AT_EPOCH": 99568, "BSTAR": 0.0010412, "MEAN_MOTION_DOT": 7.994e-05, "MEAN_MOTION_DDOT": 0}, "tle": {"line1": "1 30686U 99025AQU 25344.47679750  .00007994  00000+0  10412-2 0  9999", "line2": "2 30686  99.0330 178.1173 0144172 127.6453 293.7029 14.73838692995684"}}, "geometry": {"type": "Point", "coordinates": [-141.7638852964273, -76.03522105333867]}}, {"type": "Feature", "properties": {"norad_id": 30688, "name": "FENGYUN 1C DEB", "group": "fengyun-1c-debris", "lat": 15.415369640443117, "lon": -119.42275539207583, "alt_km": 793.5256247272846, "timestamp": "2025-12-10T18:57:00.343499+00:00", "meta": {"OBJECT_NAME": "FENGYUN 1C DEB", "OBJECT_ID": "1999-025AQW", "EPOCH": "2025-12-10T00:19:38.254080", "MEAN_MOTION": 14.32658841, "ECCENTRICITY": 0.00150391, "INCLINATION": 98.7008, "RA_OF_ASC_NODE": 57.3785, "ARG_OF_PERICENTER": 324.4257, "MEAN_ANOMALY": 160.1793, "EPHEMERIS_TYPE": 0, "CLASSIFICATION_TYPE": "U", "NORAD_CAT_ID": 30688, "ELEMENT_SET_NO": 999, "REV_AT_EPOCH": 97221, "BSTAR": 0.002322643, "MEAN_MOTION_DOT": 6.282e-05, "MEAN_MOTION_DDOT": 0}, "tle": {"line1": "1 30688U 99025AQW 25344.01363720  .00006282  00000+0  23226-2 0  9994", "line2": "2 30688  98.7008  57.3785 0015039 324.4257 160.1793 14.32658841972219"}}, "geometry": {"type": "Point", "coordinates": [-119.42275539207583, 15.415369640443117]}}]}